#aV2007  4 12  0  0   .00000000      96 DD+AD WGS84 FIT  NGA
## 1422 345600.00000000   900.00000000 54202  .0000000000000
+   30     1  2  3  4  5  6  7  8  9 10 11 12 13 14 16 17 18
+         19 20 21 22 23 24 25 26 27 28 29 30 31  0  0  0  0
+          0  0  0  0  0  0  0  0  0  0  0  0  0  0  0  0  0
+          0  0  0  0  0  0  0  0  0  0  0  0  0  0  0  0  0
+          0  0  0  0  0  0  0  0  0  0  0  0  0  0  0  0  0
++         0  0  0  0  0  0  0  0  0  0  0  0  0  0  0  0  0
++         0  0  0  0  0  0  0  0  0  0  0  0  0  0  0  0  0
++         0  0  0  0  0  0  0  0  0  0  0  0  0  0  0  0  0
++         0  0  0  0  0  0  0  0  0  0  0  0  0  0  0  0  0
++         0  0  0  0  0  0  0  0  0  0  0  0  0  0  0  0  0
%c cc cc ccc ccc cccc cccc cccc cccc ccccc ccccc ccccc ccccc
%c cc cc ccc ccc cccc cccc cccc cccc ccccc ccccc ccccc ccccc
%f  0.0000000  0.000000000  0.00000000000  0.000000000000000
%f  0.0000000  0.000000000  0.00000000000  0.000000000000000
%i    0    0    0    0      0      0      0      0         0
%i    0    0    0    0      0      0      0      0         0
/*      NGA, ST. LOUIS,MO.                                  
/*   EPHEMERIS COMPUTED FROM  3 DAYS OF DATA                
/* CCCCCCCCCCCCCCCCCCCCCCCCCCCCCCCCCCCCCCCCCCCCCCCCCCCCCCCCC
/* CCCCCCCCCCCCCCCCCCCCCCCCCCCCCCCCCCCCCCCCCCCCCCCCCCCCCCCCC
*  2007  4 12 23 15   .00000000                                                 
P  1 -12502.351100 -13478.941453  19397.862706    120.017740                    
V  1  24107.144468    573.206834  16045.887984       .026667                    
P  2  14042.540020  22692.014318  -1350.674410     98.399245                    
V  2  -1907.805484   2743.191818  31204.312945       .031071                    
P  3 -16572.658388 -11750.519145 -17479.000209     41.777300                    
V  3  21534.535600  -3868.614030 -17696.872899       .056515                    
P  4   3983.756658  23690.704515  10856.000121     10.190544                    
V  4  -9453.510183 -10840.153815  27312.754397       .006252                    
P  5  17902.278671  -6399.310426  18256.216020     33.990567                    
V  5  -8568.083313  22267.176196  16155.523501      -.069019                    
P  6  24367.820815  -6628.190738  -8124.541449    138.116405                    
V  6  10678.544943   3122.499186  28765.854575       .181934                    
P  7  21632.168860  -9729.076775 -11683.122029    347.605770                    
V  7  15527.427986   2276.521626  26015.765563      -.152808                    
P  8  -4745.954797  18352.141195 -18530.793930   -103.469671                    
V  8 -11836.423743 -20252.983810 -17556.137017      -.013880                    
P  9  18759.174461  10370.048614  15243.615700     65.759704                    
V  9   8988.652506  18327.838560 -22443.213725       .016306                    
P 10   7040.140604  15326.380869 -20548.545383    100.231767                    
V 10 -14611.030049  21407.231379  11337.955745       .007014                    
P 11 -20821.724288  -6166.087916  15366.611409     13.113742                    
V 11 -10017.228822 -17387.805152 -20115.396893       .011605                    
P 12  17556.424856  -2453.539633  19872.766370    -43.975536                    
V 12 -11695.841887  22135.484019  13190.196680      -.000551                    
P 13 -22627.617360   6868.622017 -12144.666322    162.467371                    
V 13 -15148.595253  -2158.365766  27270.477201       .036754                    
P 14   5071.519720 -14267.825482  21894.316475     15.568343                    
V 14  27512.175211   1203.593956  -5675.896227       .016074                    
P 16  -1899.334600 -19942.885404 -17279.288827    139.226472                    
V 16  13066.902099 -17986.452495  19365.401682       .032206                    
P 17  -7333.293291  14546.956304  20961.420228     71.925621                    
V 17 -26608.716724  -1268.099615  -8556.604886      -.013371                    
P 18  16929.192732 -19580.424801  -4967.303915   -251.795567                    
V 18   -822.672624   7267.358773 -30956.389733       .005760                    
P 19 -23474.708956  -8315.756999  -9286.891476     24.169389                    
V 19  12062.825980  -1666.160474 -28587.660102       .036842                    
P 20 -17885.656354   3780.527232  19148.473032    -23.627321                    
V 20  11006.757159 -22021.258220  14591.565784      -.003317                    
P 21  11041.864566 -11817.706986 -20874.825116     75.263271                    
V 21  13332.140673  23424.541237  -6744.502451       .006404                    
P 22  10565.919589 -23661.128974   5919.069809    176.657094                    
V 22   6553.279219  -4465.749707 -30352.472482       .020411                    
P 23 -26611.188044    808.224835  -1632.694271    159.706033                    
V 23  -1932.409957  -2351.820073  31754.877349       .022630                    
P 24  16640.148958   1156.751546 -20395.001646     92.327527                    
V 24  10753.820553  24196.480658  10333.334686       .030062                    
P 25 -19469.650295 -11815.808819 -13167.285973    236.666453                    
V 25  -7877.970706 -15730.990842  25186.163049      -.272658                    
P 26  22294.706872   9050.997002 -12301.010702   -138.153742                    
V 26 -14710.027015    309.414921 -26845.361511      -.199813                    
P 27 -10504.087589  10874.665289 -21175.069280    104.695720                    
V 27 -15889.076573 -23595.353108  -4350.633830       .022319                    
P 28 -12545.200813  23112.256630   2265.772608      3.350923                    
V 28  -3934.469988    498.577438 -31822.814228      -.008671                    
P 29  19302.337365  10178.682165 -15184.620634      1.587809                    
V 29 -19471.803034   1031.357615 -23375.536378       .004463                    
P 30  18226.441034 -13935.491053  12976.409369     30.833144                    
V 30  -5687.301652  16316.729317  25040.877301       .011430                    
P 31  -5640.356512 -24004.020952   9982.769455     19.297723                    
V 31   8297.978155   9554.806526  28297.595153       .009218                    
EOF
